[{"OBJECT_NAME":"STARLINK-30387","OBJECT_ID":"2023-134T","EPOCH":"2026-03-09T22:00:01.999584","MEAN_MOTION":15.23386882,"ECCENTRICITY":0.00011247,"INCLINATION":42.9997,"RA_OF_ASC_NODE":181.6009,"ARG_OF_PERICENTER":281.651,"MEAN_ANOMALY":209.8929,"EPHEMERIS_TYPE":0,"CLASSIFICATION_TYPE":"U","NORAD_CAT_ID":57788,"ELEMENT_SET_NO":999,"REV_AT_EPOCH":572,"BSTAR":0.039566067,"MEAN_MOTION_DOT":0.0103327,"MEAN_MOTION_DDOT":0},{"OBJECT_NAME":"TRANSPORTER-13 OBJECT AH","OBJECT_ID":"2025-052AH","EPOCH":"2026-03-09T15:34:17.115744","MEAN_MOTION":15.25468797,"ECCENTRICITY":0.000807,"INCLINATION":97.3962,"RA_OF_ASC_NODE":323.1443,"ARG_OF_PERICENTER":138.7508,"MEAN_ANOMALY":221.4341,"EPHEMERIS_TYPE":0,"CLASSIFICATION_TYPE":"U","NORAD_CAT_ID":63241,"ELEMENT_SET_NO":999,"REV_AT_EPOCH":5475,"BSTAR":0.00055931,"MEAN_MOTION_DOT":0.00014108,"MEAN_MOTION_DDOT":0}]
